{
  "type": "FeatureCollection",
  "features": [
    {
      "type": "Feature",
      "properties": {
        "norad_id": 38091,
        "name": "BEIDOU-2 G5 (C05)",
        "group": "gnss",
        "lat": 0.18149405681527261,
        "lon": -113.11705475932607,
        "alt_km": 35751.500142285106,
        "timestamp": "2025-12-06T07:31:40.479339+00:00",
        "meta_object_name": "BEIDOU-2 G5 (C05)",
        "meta_object_id": "2012-008A",
        "meta_epoch": "2025-12-05T01:59:26.111904",
        "meta_mean_motion": 1.00272818,
        "meta_eccentricity": 0.00124323,
        "meta_inclination": 3.089,
        "meta_ra_of_asc_node": 70.7304,
        "meta_arg_of_pericenter": 225.8222,
        "meta_mean_anomaly": 226.162,
        "meta_ephemeris_type": 0,
        "meta_classification_type": "U",
        "meta_norad_cat_id": 38091,
        "meta_element_set_no": 999,
        "meta_rev_at_epoch": 5042,
        "meta_bstar": 0,
        "meta_mean_motion_dot": 6.8e-07,
        "meta_mean_motion_ddot": 0,
        "tle_line1": "1 38091U 12008A   25339.08294111  .00000068  00000+0  00000+0 0  9992",
        "tle_line2": "2 38091   3.0890  70.7304 0012432 225.8222 226.1620  1.00272818 50428"
      },
      "geometry": {
        "type": "Point",
        "coordinates": [
          -113.11705475932607,
          0.18149405681527261
        ]
      }
    },
    {
      "type": "Feature",
      "properties": {
        "norad_id": 38250,
        "name": "BEIDOU-2 M3 (C11)",
        "group": "gnss",
        "lat": -51.94707421460866,
        "lon": -108.44444361158916,
        "alt_km": 21467.591179815645,
        "timestamp": "2025-12-06T07:31:40.479351+00:00",
        "meta_object_name": "BEIDOU-2 M3 (C11)",
        "meta_object_id": "2012-018A",
        "meta_epoch": "2025-12-04T06:32:53.001888",
        "meta_mean_motion": 1.86229694,
        "meta_eccentricity": 0.0024462,
        "meta_inclination": 55.9274,
        "meta_ra_of_asc_node": 311.4423,
        "meta_arg_of_pericenter": 273.73,
        "meta_mean_anomaly": 85.9745,
        "meta_ephemeris_type": 0,
        "meta_classification_type": "U",
        "meta_norad_cat_id": 38250,
        "meta_element_set_no": 999,
        "meta_rev_at_epoch": 9231,
        "meta_bstar": 0,
        "meta_mean_motion_dot": -6.8e-07,
        "meta_mean_motion_ddot": 0,
        "tle_line1": "1 38250U 12018A   25338.27283567 -.00000068  00000+0  00000+0 0  9994",
        "tle_line2": "2 38250  55.9274 311.4423 0024462 273.7300  85.9745  1.86229694 92310"
      },
      "geometry": {
        "type": "Point",
        "coordinates": [
          -108.44444361158916,
          -51.94707421460866
        ]
      }
    },
    {
      "type": "Feature",
      "properties": {
        "norad_id": 38251,
        "name": "BEIDOU-2 M4 (C12)",
        "group": "gnss",
        "lat": -21.429694850076537,
        "lon": -64.87489615344778,
        "alt_km": 21507.22395634698,
        "timestamp": "2025-12-06T07:31:40.479365+00:00",
        "meta_object_name": "BEIDOU-2 M4 (C12)",
        "meta_object_id": "2012-018B",
        "meta_epoch": "2025-12-04T04:55:01.467840",
        "meta_mean_motion": 1.86229385,
        "meta_eccentricity": 0.0015607,
        "meta_inclination": 55.8289,
        "meta_ra_of_asc_node": 310.6742,
        "meta_arg_of_pericenter": 276.8686,
        "meta_mean_anomaly": 82.9379,
        "meta_ephemeris_type": 0,
        "meta_classification_type": "U",
        "meta_norad_cat_id": 38251,
        "meta_element_set_no": 999,
        "meta_rev_at_epoch": 9231,
        "meta_bstar": 0,
        "meta_mean_motion_dot": -6.8e-07,
        "meta_mean_motion_ddot": 0,
        "tle_line1": "1 38251U 12018B   25338.20487810 -.00000068  00000+0  00000+0 0  9995",
        "tle_line2": "2 38251  55.8289 310.6742 0015607 276.8686  82.9379  1.86229385 92310"
      },
      "geometry": {
        "type": "Point",
        "coordinates": [
          -64.87489615344778,
          -21.429694850076537
        ]
      }
    },
    {
      "type": "Feature",
      "properties": {
        "norad_id": 38652,
        "name": "SES-5 (EGNOS/PRN 136)",
        "group": "gnss",
        "lat": -0.06778334698587667,
        "lon": -166.79027832035771,
        "alt_km": 35782.031251143875,
        "timestamp": "2025-12-06T07:31:40.479377+00:00",
        "meta_object_name": "SES-5 (EGNOS/PRN 136)",
        "meta_object_id": "2012-036A",
        "meta_epoch": "2025-12-05T03:26:55.228992",
        "meta_mean_motion": 1.00269732,
        "meta_eccentricity": 0.00021658,
        "meta_inclination": 0.0566,
        "meta_ra_of_asc_node": 305.3747,
        "meta_arg_of_pericenter": 308.0279,
        "meta_mean_anomaly": 237.5078,
        "meta_ephemeris_type": 0,
        "meta_classification_type": "U",
        "meta_norad_cat_id": 38652,
        "meta_element_set_no": 999,
        "meta_rev_at_epoch": 4252,
        "meta_bstar": 0,
        "meta_mean_motion_dot": 4.6e-07,
        "meta_mean_motion_ddot": 0,
        "tle_line1": "1 38652U 12036A   25339.14369478  .00000046  00000+0  00000+0 0  9998",
        "tle_line2": "2 38652   0.0566 305.3747 0002165 308.0279 237.5078  1.00269732 42520"
      },
      "geometry": {
        "type": "Point",
        "coordinates": [
          -166.79027832035771,
          -0.06778334698587667
        ]
      }
    },
    {
      "type": "Feature",
      "properties": {
        "norad_id": 38775,
        "name": "BEIDOU-2 M6 (C14)",
        "group": "gnss",
        "lat": 10.282204683078021,
        "lon": -117.63459961494567,
        "alt_km": 21557.440015511675,
        "timestamp": "2025-12-06T07:31:40.479388+00:00",
        "meta_object_name": "BEIDOU-2 M6 (C14)",
        "meta_object_id": "2012-050B",
        "meta_epoch": "2025-12-03T09:05:34.856160",
        "meta_mean_motion": 1.86230686,
        "meta_eccentricity": 0.00108899,
        "meta_inclination": 56.3706,
        "meta_ra_of_asc_node": 69.3782,
        "meta_arg_of_pericenter": 346.3356,
        "meta_mean_anomaly": 13.638,
        "meta_ephemeris_type": 0,
        "meta_classification_type": "U",
        "meta_norad_cat_id": 38775,
        "meta_element_set_no": 999,
        "meta_rev_at_epoch": 8966,
        "meta_bstar": 0,
        "meta_mean_motion_dot": -5e-07,
        "meta_mean_motion_ddot": 0,
        "tle_line1": "1 38775U 12050B   25337.37887565 -.00000050  00000+0  00000+0 0  9991",
        "tle_line2": "2 38775  56.3706  69.3782 0010889 346.3356  13.6380  1.86230686 89660"
      },
      "geometry": {
        "type": "Point",
        "coordinates": [
          -117.63459961494567,
          10.282204683078021
        ]
      }
    },
    {
      "type": "Feature",
      "properties": {
        "norad_id": 38779,
        "name": "GSAT-10 (GAGAN/PRN 128)",
        "group": "gnss",
        "lat": -0.012621790925670838,
        "lon": -88.77527036019713,
        "alt_km": 35793.75261830501,
        "timestamp": "2025-12-06T07:31:40.479400+00:00",
        "meta_object_name": "GSAT-10 (GAGAN/PRN 128)",
        "meta_object_id": "2012-051B",
        "meta_epoch": "2025-12-05T03:42:38.812896",
        "meta_mean_motion": 1.0026888,
        "meta_eccentricity": 0.00023414,
        "meta_inclination": 0.0277,
        "meta_ra_of_asc_node": 263.2281,
        "meta_arg_of_pericenter": 234.4643,
        "meta_mean_anomaly": 75.1387,
        "meta_ephemeris_type": 0,
        "meta_classification_type": "U",
        "meta_norad_cat_id": 38779,
        "meta_element_set_no": 999,
        "meta_rev_at_epoch": 4815,
        "meta_bstar": 0,
        "meta_mean_motion_dot": -1.51e-06,
        "meta_mean_motion_ddot": 0,
        "tle_line1": "1 38779U 12051B   25339.15461589 -.00000151  00000+0  00000+0 0  9990",
        "tle_line2": "2 38779   0.0277 263.2281 0002341 234.4643  75.1387  1.00268880 48154"
      },
      "geometry": {
        "type": "Point",
        "coordinates": [
          -88.77527036019713,
          -0.012621790925670838
        ]
      }
    },
    {
      "type": "Feature",
      "properties": {
        "norad_id": 38833,
        "name": "GPS BIIF-3  (PRN 24)",
        "group": "gnss",
        "lat": -31.5776464458827,
        "lon": 124.46509965254432,
        "alt_km": 20295.605176521196,
        "timestamp": "2025-12-06T07:31:40.479412+00:00",
        "meta_object_name": "GPS BIIF-3  (PRN 24)",
        "meta_object_id": "2012-053A",
        "meta_epoch": "2025-12-04T20:58:35.662368",
        "meta_mean_motion": 2.00564858,
        "meta_eccentricity": 0.0175571,
        "meta_inclination": 53.5563,
        "meta_ra_of_asc_node": 151.5608,
        "meta_arg_of_pericenter": 63.8805,
        "meta_mean_anomaly": 297.9293,
        "meta_ephemeris_type": 0,
        "meta_classification_type": "U",
        "meta_norad_cat_id": 38833,
        "meta_element_set_no": 999,
        "meta_rev_at_epoch": 9554,
        "meta_bstar": 0,
        "meta_mean_motion_dot": 7.4e-07,
        "meta_mean_motion_ddot": 0,
        "tle_line1": "1 38833U 12053A   25338.87402387  .00000074  00000+0  00000+0 0  9995",
        "tle_line2": "2 38833  53.5563 151.5608 0175571  63.8805 297.9293  2.00564858 95548"
      },
      "geometry": {
        "type": "Point",
        "coordinates": [
          124.46509965254432,
          -31.5776464458827
        ]
      }
    }
  ]
}